[{"OBJECT_NAME":"GAOFEN-9 03","OBJECT_ID":"2020-039A","EPOCH":"2026-03-09T21:55:15.121344","MEAN_MOTION":15.30529116,"ECCENTRICITY":0.0013094,"INCLINATION":97.5219,"RA_OF_ASC_NODE":201.2158,"ARG_OF_PERICENTER":77.4533,"MEAN_ANOMALY":282.8172,"EPHEMERIS_TYPE":0,"CLASSIFICATION_TYPE":"U","NORAD_CAT_ID":45794,"ELEMENT_SET_NO":999,"REV_AT_EPOCH":31856,"BSTAR":0.00039258132,"MEAN_MOTION_DOT":0.00011544,"MEAN_MOTION_DDOT":0},{"OBJECT_NAME":"STARLINK-36269","OBJECT_ID":"2026-008AD","EPOCH":"2026-03-09T09:18:32.952960","MEAN_MOTION":15.27599674,"ECCENTRICITY":9.872e-5,"INCLINATION":43.0007,"RA_OF_ASC_NODE":207.1226,"ARG_OF_PERICENTER":223.7297,"MEAN_ANOMALY":136.3477,"EPHEMERIS_TYPE":0,"CLASSIFICATION_TYPE":"U","NORAD_CAT_ID":67472,"ELEMENT_SET_NO":999,"REV_AT_EPOCH":952,"BSTAR":0.0012919086,"MEAN_MOTION_DOT":0.00035481,"MEAN_MOTION_DDOT":0}]
